satname,norad_id,inclination_deg,eccentricity,mean_motion_rev_per_day,perigee_km,apogee_km,l1,l2
STARLINK-1570,46059,53.1617,0.0001089,15.31692452,470.0166503582186,471.5083406683416,1 46059U 20055AJ  26164.85886595 -.00002043  00000+0 -54106-4 0  9999,2 46059  53.1617  26.5414 0001089 115.4564 244.6551 15.31692452323761
STARLINK-1572,46060,53.1612,0.0001405,15.30169117,474.3443731198895,476.27019096314416,1 46060U 20055AK  26164.87262801 -.00000265  00000+0  31977-5 0  9996,2 46060  53.1612  27.3546 0001405  95.1228 264.9933 15.30169117323761
STARLINK-1573,46061,53.1607,7.43e-05,15.31688712,470.26477031204104,471.2825184337953,1 46061U 20055AL  26164.84488098 -.00000695  00000+0 -10646-4 0  9999,2 46061  53.1607  26.5710 0000743  87.6187 272.4899 15.31688712323802
STARLINK-1577,46063,53.1628,0.0001429,15.31693193,469.7815791913308,471.73899403584437,1 46063U 20055AN  26164.87283495 -.00000420  00000+0 -17738-5 0  9994,2 46063  53.1628  26.4294 0001429 105.4519 254.6640 15.31693193323808
STARLINK-1583,46064,53.1615,0.0001153,15.31702802,469.94196806769014,471.52131717668,1 46064U 20055AP  26164.88688624  .00001922  00000+0  73676-4 0  9997,2 46064  53.1615  26.8759 0001153  87.1459 272.9675 15.31702802323795
STARLINK-1536,46070,53.1586,0.0001426,15.3171767,469.7106800331185,471.6639647298616,1 46070U 20055AV  26164.82291637  .00006866  00000+0  23269-3 0  9996,2 46070  53.1586  14.5628 0001426 136.7109 223.4004 15.31717670323969
STARLINK-1542,46073,53.1603,0.0001123,15.31694715,469.98661892515975,471.52488023671503,1 46073U 20055AY  26164.84729684 -.00001364  00000+0 -32201-4 0  9996,2 46073  53.1603  17.4153 0001123  88.1149 271.9981 15.31694715323916
STARLINK-1549,46074,53.0496,0.0002489,15.29830471,474.61256448451877,478.02471250136114,1 46074U 20055AZ  26164.88042308  .00035461  00000+0  12173-2 0  9999,2 46074  53.0496  14.4406 0002489 143.0272 217.0899 15.29830471323948
STARLINK-1551,46075,53.157,0.0001142,15.31692107,469.98137950913315,471.5456683888033,1 46075U 20055BA  26164.83335647 -.00007198  00000+0 -22047-3 0  9996,2 46075  53.1570  14.4506 0001142  89.3317  17.9194 15.31692107  5858
STARLINK-1552,46076,53.1597,9.54e-05,15.31697354,470.09449920749466,471.4012664431375,1 46076U 20055BB  26164.86514447  .00000021  00000+0  12444-4 0  9994,2 46076  53.1597  13.8859 0000954 100.5917 259.5191 15.31697354323958
STARLINK-1559,46077,53.0244,3.48e-05,15.38919634,449.06522807758756,449.5404178892659,1 46077U 20055BC  26164.77010443  .00048847  00000+0  12516-2 0  9998,2 46077  53.0244 343.4380 0000348 148.0551 212.0473 15.38919634324331
STARLINK-1566,46079,53.1602,9.93e-05,15.31691548,470.0850943261994,471.44528630119567,1 46079U 20055BE  26164.73928713 -.00000099  00000+0  85864-5 0  9991,2 46079  53.1602  14.3238 0000993  98.1361 261.9753 15.31691548323953
STARLINK-1568,46080,53.0592,0.0002914,15.54801966,400.75240670436233,404.7042950308487,1 46080U 20055BF  26164.66469808  .00047722  00000+0  70707-3 0  9991,2 46080  53.0592 292.1806 0002914  64.0011 296.1299 15.54801966325081
STARLINK-1578,46082,53.1591,0.0001007,15.31693101,470.07087687846706,471.450244847224,1 46082U 20055BH  26164.87417698 -.00003256  00000+0 -93240-4 0  9990,2 46082  53.1591  14.2114 0001007  93.0560 267.0557 15.31693101323965
STARLINK-1579,46083,53.1596,0.0001091,15.31700712,469.9906605428987,471.4850850401417,1 46083U 20055BJ  26164.86047047  .00004170  00000+0  14607-3 0  9990,2 46083  53.1596  13.8101 0001091  81.1028 279.0097 15.31700712323961
STARLINK-1622,46128,53.0134,0.0005711,15.87317271,305.9883190375094,313.62728959299875,1 46128U 20057M   26164.83335647  .00259754  00000+0  94170-3 0  9998,2 46128  53.0134 105.6672 0005711  97.6913 286.3068 15.87317271  5982
STARLINK-1623,46129,53.0387,0.0005875,15.76170794,337.3539433705,345.24928374142746,1 46129U 20057N   26164.20044614  .00128014  00000+0  79292-3 0  9993,2 46129  53.0387 147.5131 0005875  50.8230 309.3311 15.76170794321873
STARLINK-1596,46141,53.0336,0.0006504,15.60720577,381.1753133768134,389.9735492066384,1 46141U 20057AA  26164.59743708  .00096209  00000+0  11286-2 0  9997,2 46141  53.0336 128.6682 0006504  54.9286 305.2336 15.60720577322177
STARLINK-1597,46142,53.039,0.0005191,15.75976103,338.36665281738715,345.34334851247695,1 46142U 20057AB  26164.83335647  .00139194  00000+0  86826-3 0  9998,2 46142  53.0390 184.1111 0005191  45.0377  75.2493 15.75976103  6020
STARLINK-1606,46144,53.0299,0.0003722,15.99223487,274.09510452156246,279.0488698916388,1 46144U 20057AD  26164.83335647  .00511779  12387-3  10243-2 0  9997,2 46144  53.0299 136.0804 0003722 193.0446 159.2287 15.99223487  5999
STARLINK-1608,46146,53.1573,0.0005315,15.36519895,452.77714922760333,460.042272381188,1 46146U 20057AF  26164.44686975  .00039169  00000+0  10879-2 0  9997,2 46146  53.1573 222.9556 0005315 356.9393   3.1577 15.36519895320864
STARLINK-1667,46155,53.0088,0.0004826,15.9466976,286.0170498146608,292.4523970020937,1 46155U 20057AQ  26164.83335647  .00407429  76923-4  10488-2 0  9993,2 46155  53.0088 104.5603 0004826 110.0546  76.8939 15.94669760  6059
STARLINK-1545,46156,53.0345,0.0001549,15.88925056,304.2602272970871,306.3307546827955,1 46156U 20057AR  26164.83335647  .00332299  00000+0  11035-2 0  9993,2 46156  53.0345 141.1198 0001549 151.5055 257.1128 15.88925056  6034
STARLINK-1595,46159,53.0404,0.0006089,15.73729173,344.1542035938983,352.3455975614215,1 46159U 20057AU  26164.83335647  .00119357  00000+0  82308-3 0  9996,2 46159  53.0404 186.9626 0006089  37.2601 215.2881 15.73729173  6012
STARLINK-1598,46160,53.0414,0.0001563,15.73249295,348.5660870340207,350.6691831329472,1 46160U 20057AV  26164.31956538  .00093851  00000+0  66414-3 0  9999,2 46160  53.0414 175.6875 0001563 346.4941  13.6035 15.73249295322733
STARLINK-1626,46167,53.0379,0.0001675,15.7666787,338.7639785579149,341.0145173509809,1 46167U 20057BC  26164.36068708  .00111190  00000+0  67621-3 0  9992,2 46167  53.0379 184.8045 0001675  68.5240 291.5958 15.76667870321364
STARLINK-1633,46171,53.0308,0.0001905,15.85272642,314.2820044149257,316.8323018872752,1 46171U 20057BG  26164.83335647  .00249803  00000+0  10024-2 0  9995,2 46171  53.0308 143.1395 0001905 141.0090 149.4923 15.85272642  6039
STARLINK-1635,46172,53.0312,0.0002024,15.92440295,294.10555285508144,296.8070234181205,1 46172U 20057BH  26164.83335647  .00381109  66782-4  11056-2 0  9992,2 46172  53.0312 140.7347 0002024 155.2072 185.3771 15.92440295  6034
